NORAD_CAT_ID,OBJECT_NAME,OBJECT_TYPE,EPOCH,MEAN_MOTION,ECCENTRICITY,INCLINATION,RA_OF_ASC_NODE,ARG_OF_PERICENTER,MEAN_ANOMALY,BSTAR,MEAN_MOTION_DOT,MEAN_MOTION_DDOT,TLE_LINE0,TLE_LINE1,TLE_LINE2,SEMIMAJOR_AXIS,PERIOD,APOGEE,PERIGEE,DECAYED
55278.0,STARLINK-5289,PAYLOAD,2023-04-11 11:08:12,14.99138259,0.0002864,70.0009,205.2763,270.0744,90.0087,-2.9641e-05,-4.55e-06,0.0,0 STARLINK-5289,1 55278U 23010K   23101.46403693 -.00000455  00000-0 -29641-4 0  9997,2 55278  70.0009 205.2763 0002864 270.0744  90.0087 14.99138259 13216,6947.695,96.055,571.549,567.57,0.0
55278.0,STARLINK-5289,PAYLOAD,2023-04-11 19:08:37,14.99138029,0.000265,70.0004,204.4328,273.661,86.4247,-1.0033e-05,-2.16e-06,0.0,0 STARLINK-5289,1 55278U 23010K   23101.79765675 -.00000216  00000-0 -10033-4 0  9994,2 55278  70.0004 204.4328 0002650 273.6610  86.4247 14.99138029 13563,6947.695,96.055,571.401,567.719,0.0
55278.0,STARLINK-5289,PAYLOAD,2023-04-12 12:45:31,14.99141049,0.0002888,70.0009,202.5821,267.2357,92.8472,-1.9563e-05,-3.32e-06,0.0,0 STARLINK-5289,1 55278U 23010K   23102.53161739 -.00000332  00000-0 -19563-4 0  9994,2 55278  70.0009 202.5821 0002888 267.2357  92.8472 14.99141049 13371,6947.686,96.055,571.557,567.544,0.0
55278.0,STARLINK-5289,PAYLOAD,2023-04-13 11:10:41,14.99133712,0.0003053,70.0006,200.2229,271.2079,88.8731,-3.2709e-06,-1.34e-06,0.0,0 STARLINK-5289,1 55278U 23010K   23103.46575714 -.00000134  00000-0 -32709-5 0  9997,2 55278  70.0006 200.2229 0003053 271.2079  88.8731 14.99133712 13816,6947.709,96.055,571.695,567.452,0.0
55278.0,STARLINK-5289,PAYLOAD,2023-04-13 12:46:45,14.99139923,0.0003144,69.9999,200.0537,269.7906,90.2894,1.9641e-05,1.46e-06,0.0,0 STARLINK-5289,1 55278U 23010K   23103.53247624  .00000146  00000-0  19641-4 0  9991,2 55278  69.9999 200.0537 0003144 269.7906  90.2894 14.99139923 13521,6947.689,96.055,571.739,567.37,0.0
55278.0,STARLINK-5289,PAYLOAD,2023-04-14 11:11:55,14.99130429,0.0003184,69.9997,197.6955,269.8736,90.2059,2.5417e-05,2.16e-06,0.0,0 STARLINK-5289,1 55278U 23010K   23104.46661896  .00000216  00000-0  25417-4 0  9991,2 55278  69.9997 197.6955 0003184 269.8736  90.2059 14.99130429 13963,6947.719,96.056,571.796,567.372,0.0
55278.0,STARLINK-5289,PAYLOAD,2023-04-15 08:00:59,14.99136998,0.0003144,70.0015,195.5077,272.7381,87.3419,8.4399e-05,9.35e-06,0.0,0 STARLINK-5289,1 55278U 23010K   23105.33402550  .00000935  00000-0  84399-4 0  9990,2 55278  70.0015 195.5077 0003144 272.7381  87.3419 14.99136998 13799,6947.698,96.055,571.748,567.379,0.0
55278.0,STARLINK-5289,PAYLOAD,2023-04-15 12:49:14,14.99140291,0.000311,70.0008,195.002,271.5842,88.4961,8.8076e-05,9.8e-06,0.0,0 STARLINK-5289,1 55278U 23010K   23105.53419543  .00000980  00000-0  88076-4 0  9998,2 55278  70.0008 195.0020 0003110 271.5842  88.4961 14.99140291 14129,6947.688,96.055,571.714,567.393,0.0
55278.0,STARLINK-5289,PAYLOAD,2023-04-15 16:01:23,14.99146325,0.0002924,70.0011,194.6651,271.4492,88.6332,0.00013554,1.558e-05,0.0,0 STARLINK-5289,1 55278U 23010K   23105.66763769  .00001558  00000-0  13554-3 0  9994,2 55278  70.0011 194.6651 0002924 271.4492  88.6332 14.99146325 13846,6947.67,96.055,571.566,567.503,0.0
55278.0,STARLINK-5289,PAYLOAD,2023-04-16 04:50:04,14.99133607,0.0002768,70.0012,193.3172,271.8641,88.2201,9.7411e-05,1.093e-05,0.0,0 STARLINK-5289,1 55278U 23010K   23106.20143773  .00001093  00000-0  97411-4 0  9991,2 55278  70.0012 193.3172 0002768 271.8641  88.2201 14.99133607 13926,6947.709,96.055,571.497,567.651,0.0
55278.0,STARLINK-5289,PAYLOAD,2023-04-16 12:50:29,14.99135441,0.0002556,70.001,192.475,267.5983,92.4884,2.5191e-05,2.13e-06,0.0,0 STARLINK-5289,1 55278U 23010K   23106.53505897  .00000213  00000-0  25191-4 0  9995,2 55278  70.0010 192.4750 0002556 267.5983  92.4884 14.99135441 14273,6947.703,96.055,571.344,567.792,0.0
55278.0,STARLINK-5289,PAYLOAD,2023-04-16 16:02:38,14.99138625,0.0002507,70.0013,192.1384,269.005,91.0822,2.3151e-05,1.88e-06,0.0,0 STARLINK-5289,1 55278U 23010K   23106.66850519  .00000188  00000-0  23151-4 0  9998,2 55278  70.0013 192.1384 0002507 269.0050  91.0822 14.99138625 14290,6947.693,96.055,571.3,567.817,0.0
55278.0,STARLINK-5289,PAYLOAD,2023-04-17 04:51:18,14.99133255,0.0003003,70.001,190.791,265.6177,94.464,8.1205e-06,5e-08,0.0,0 STARLINK-5289,1 55278U 23010K   23107.20229953  .00000005  00000-0  81205-5 0  9994,2 55278  70.0010 190.7910 0003003 265.6177  94.4640 14.99133255 14075,6947.71,96.056,571.661,567.489,0.0
55278.0,STARLINK-5289,PAYLOAD,2023-04-17 12:51:43,14.99137288,0.0002605,70.0011,189.9489,259.7838,100.3028,-8.5247e-05,-1.132e-05,0.0,0 STARLINK-5289,1 55278U 23010K   23107.53592039 -.00001132  00000-0 -85247-4 0  9991,2 55278  70.0011 189.9489 0002605 259.7838 100.3028 14.99137288 14428,6947.698,96.055,571.372,567.753,0.0
55278.0,STARLINK-5289,PAYLOAD,2023-04-17 14:27:48,14.99136809,0.0002525,70.001,189.7805,259.4368,100.6507,-7.424e-05,-9.98e-06,0.0,0 STARLINK-5289,1 55278U 23010K   23107.60264454 -.00000998  00000-0 -74240-4 0  9996,2 55278  70.0010 189.7805 0002525 259.4368 100.6507 14.99136809 14437,6947.699,96.055,571.318,567.81,0.0
55278.0,STARLINK-5289,PAYLOAD,2023-04-18 09:40:47,14.99138398,0.0002832,70.0006,187.7594,265.0313,95.0523,3.4118e-06,-5.2e-07,0.0,0 STARLINK-5289,1 55278U 23010K   23108.40332931 -.00000052  00000-0  34118-5 0  9992,2 55278  70.0006 187.7594 0002832 265.0313  95.0523 14.99138398 14552,6947.694,96.055,571.527,567.592,0.0
55278.0,STARLINK-5289,PAYLOAD,2023-04-18 14:29:03,14.99129661,0.0003,70.0001,187.2545,265.5864,94.4953,-5.2144e-05,-7.29e-06,0.0,0 STARLINK-5289,1 55278U 23010K   23108.60350908 -.00000729  00000-0 -52144-4 0  9998,2 55278  70.0001 187.2545 0003000 265.5864  94.4953 14.99129661 14588,6947.721,96.056,571.67,567.502,0.0
55278.0,STARLINK-5289,PAYLOAD,2023-04-19 08:05:58,14.99119156,0.0003119,70.0002,185.4019,268.5843,91.4959,-7.9127e-05,-1.057e-05,0.0,0 STARLINK-5289,1 55278U 23010K   23109.33748820 -.00001057  00000-0 -79127-4 0  9998,2 55278  70.0002 185.4019 0003119 268.5843  91.4959 14.99119156 14699,6947.754,96.056,571.786,567.452,0.0
55278.0,STARLINK-5289,PAYLOAD,2023-04-19 14:30:18,14.99128111,0.0002952,69.9999,184.7275,270.0252,90.0569,-1.1238e-05,-2.31e-06,0.0,0 STARLINK-5289,1 55278U 23010K   23109.60437928 -.00000231  00000-0 -11238-4 0  9994,2 55278  69.9999 184.7275 0002952 270.0252  90.0569 14.99128111 14731,6947.726,96.056,571.642,567.54,0.0
55278.0,STARLINK-5289,PAYLOAD,2023-04-19 22:30:42,14.99138089,0.0002986,69.9999,183.8846,270.6702,89.4115,6.3239e-05,6.77e-06,0.0,0 STARLINK-5289,1 55278U 23010K   23109.93799234  .00000677  00000-0  63239-4 0  9991,2 55278  69.9999 183.8846 0002986 270.6702  89.4115 14.99138089 14484,6947.695,96.055,571.635,567.485,0.0
55278.0,STARLINK-5289,PAYLOAD,2023-04-20 08:07:11,14.99142799,0.0003271,69.9995,182.8751,270.6131,89.4654,0.00013932,1.604e-05,0.0,0 STARLINK-5289,1 55278U 23010K   23110.33833013  .00001604  00000-0  13932-3 0  9996,2 55278  69.9995 182.8751 0003271 270.6131  89.4654 14.99142799 14849,6947.681,96.055,571.818,567.273,0.0
55278.0,STARLINK-5289,PAYLOAD,2023-04-20 12:55:25,14.99150408,0.0003015,69.9994,182.3683,266.3851,93.6964,0.00019005,2.223e-05,0.0,0 STARLINK-5289,1 55278U 23010K   23110.53849506  .00002223  00000-0  19005-3 0  9997,2 55278  69.9994 182.3683 0003015 266.3851  93.6964 14.99150408 14571,6947.657,96.054,571.617,567.427,0.0
55278.0,STARLINK-5289,PAYLOAD,2023-04-20 14:31:30,14.99151607,0.0002951,69.9995,182.1999,265.1894,94.8928,0.00020338,2.386e-05,0.0,0 STARLINK-5289,1 55278U 23010K   23110.60521750  .00002386  00000-0  20338-3 0  9994,2 55278  69.9995 182.1999 0002951 265.1894  94.8928 14.99151607 14881,6947.653,96.054,571.569,567.468,0.0
55278.0,STARLINK-5289,PAYLOAD,2023-04-21 04:56:16,14.99135144,0.0002819,70.0009,180.6847,274.4681,85.6157,0.00013679,1.573e-05,0.0,0 STARLINK-5289,1 55278U 23010K   23111.20574726  .00001573  00000-0  13679-3 0  9999,2 55278  70.0009 180.6847 0002819 274.4681  85.6157 14.99135144 14672,6947.704,96.055,571.528,567.611,0.0
55278.0,STARLINK-5289,PAYLOAD,2023-04-21 11:20:36,14.99137718,0.0002753,70.0005,180.0097,267.3657,92.7187,9.0604e-05,1.01e-05,0.0,0 STARLINK-5289,1 55278U 23010K   23111.47264191  .00001010  00000-0  90604-4 0  9990,2 55278  70.0005 180.0097 0002753 267.3657  92.7187 14.99137718 15010,6947.696,96.055,571.474,567.649,0.0
55278.0,STARLINK-5289,PAYLOAD,2023-04-21 14:32:46,14.99134238,0.0002693,70.0006,179.6748,262.8481,97.2372,7.8411e-05,8.62e-06,0.0,0 STARLINK-5289,1 55278U 23010K   23111.60609309  .00000862  00000-0  78411-4 0  9995,2 55278  70.0006 179.6748 0002693 262.8481  97.2372 14.99134238 15038,6947.707,96.055,571.443,567.701,0.0
55278.0,STARLINK-5289,PAYLOAD,2023-04-22 04:57:30,14.9915952,0.0002636,70.0002,178.1582,272.3231,87.7626,-0.00016237,-2.073e-05,0.0,0 STARLINK-5289,1 55278U 23010K   23112.20659826 -.00002073  00000-0 -16237-3 0  9996,2 55278  70.0002 178.1582 0002636 272.3231  87.7626 14.99159520 14823,6947.629,96.054,571.325,567.662,0.0
55278.0,STARLINK-5289,PAYLOAD,2023-04-22 11:21:49,14.99152671,0.0002903,70.0,177.4844,264.4257,95.6571,-1.3369e-05,-2.57e-06,0.0,0 STARLINK-5289,1 55278U 23010K   23112.47349041 -.00000257  00000-0 -13369-4 0  9996,2 55278  70.0000 177.4844 0002903 264.4257  95.6571 14.99152671 15166,6947.65,96.054,571.532,567.498,0.0
55278.0,STARLINK-5289,PAYLOAD,2023-04-22 12:57:53,14.99184283,0.0002562,70.0001,177.3161,266.2103,93.8764,-0.00051358,-6.353e-05,0.0,0 STARLINK-5289,1 55278U 23010K   23112.54020667 -.00006353  00000-0 -51358-3 0  9996,2 55278  70.0001 177.3161 0002562 266.2103  93.8764 14.99184283 14874,6947.552,96.052,571.197,567.637,0.0
55278.0,STARLINK-5289,PAYLOAD,2023-04-22 14:33:59,14.99154969,0.0002905,70.0001,177.148,266.1952,93.8876,-3.9446e-05,-5.75e-06,0.0,0 STARLINK-5289,1 55278U 23010K   23112.60693637 -.00000575  00000-0 -39446-4 0  9991,2 55278  70.0001 177.1480 0002905 266.1952  93.8876 14.99154969 14881,6947.643,96.054,571.526,567.49,0.0
